STARLINK-31474          
1 59304U 24056J   26068.43052589  .00002262  00000+0  91711-4 0  9990
2 59304  43.0036 225.3421 0001728 280.3945  79.6712 15.27574581111197
TROLL                   
1 62658U 25009BB  26068.22522958  .00013174  00000+0  48220-3 0  9994
2 62658  97.3932 150.7169 0001816  59.1850 300.9568 15.28164315118170
